0 FENGYUN 1C DEB
1 30055U 99025PG  13282.02857810  .00033608  00000-0  15754-1 0  1529
2 30055 099.6394 330.8755 0244295 116.4105 246.2354 14.05539691339228
0 FENGYUN 1C DEB
1 30055U 99025PG  13283.09634257  .00028381  00000-0  13315-1 0  1539
2 30055 099.6388 332.0123 0243694 113.5386 249.1583 14.05611470339373
0 FENGYUN 1C DEB
1 30055U 99025PG  13285.80116894  .00022117  00000-0  10423-1 0  1552
2 30055 099.6431 334.8913 0241263 106.3017 256.4828 14.05715788339752
0 FENGYUN 1C DEB
1 30055U 99025PG  13287.08232722  .00021214  00000-0  10013-1 0  1566
2 30055 099.6441 336.2553 0240214 102.8304 259.9815 14.05764002339931
0 FENGYUN 1C DEB
1 30055U 99025PG  13287.86523167  .00041276  00000-0  19424-1 0  1574
2 30055 099.6446 337.0889 0239457 100.6992 262.1232 14.05805579340041
0 FENGYUN 1C DEB
1 30055U 99025PG  13289.07511649  .00034124  00000-0  16085-1 0  1586
2 30055 099.6452 338.3776 0238483 097.3926 265.4406 14.05887627340216
0 FENGYUN 1C DEB
1 30055U 99025PG  13289.85795105  .00035955  00000-0  16954-1 0  1592
2 30055 099.6456 339.2116 0237844 095.2486 267.5866 14.05922085340329
0 FENGYUN 1C DEB
1 30055U 99025PG  13290.42727231  .00033343  00000-0  15737-1 0  1601
2 30055 099.6459 339.8181 0237370 093.6794 269.1547 14.05948975340407
0 FENGYUN 1C DEB
1 30055U 99025PG  13291.85052303  .00027010  00000-0  12775-1 0  1614
2 30055 099.6465 341.3346 0236291 089.7557 273.0681 14.06018111340605
0 FENGYUN 1C DEB
1 30055U 99025PG  13293.41602203  .00025603  00000-0  12129-1 0  1628
2 30055 099.6472 343.0031 0235060 085.4078 277.3894 14.06083428340827
0 FENGYUN 1C DEB
1 30055U 99025PG  13294.83913703  .00031220  00000-0  14788-1 0  1631
2 30055 099.6476 344.5196 0234057 081.4438 281.3173 14.06142246341022
0 FENGYUN 1C DEB
1 30055U 99025PG  13295.69297683  .00028803  00000-0  13656-1 0  1645
2 30055 099.6481 345.4296 0233464 079.0606 283.6731 14.06179613341146
